[
  {
    "name": "Franny",
    "specialty": "GP",
    "language": "Chinese",
    "postcode": 1996
  },
  {
    "name": "Linet",
    "specialty": "Optometrist",
    "language": "Spanish",
    "postcode": 2844
  },
  {
    "name": "Cherey",
    "specialty": "GP",
    "language": "Italian",
    "postcode": 1994
  },
  {
    "name": "Geri",
    "specialty": "Optometrist",
    "language": "Spanish",
    "postcode": 2526
  },
  {
    "name": "Nadiya",
    "specialty": "GP",
    "language": "Spanish",
    "postcode": 2283
  },
  {
    "name": "Brigida",
    "specialty": "Dentist",
    "language": "Japanese",
    "postcode": 1923
  },
  {
    "name": "Ailey",
    "specialty": "GP",
    "language": "Italian",
    "postcode": 2655
  },
  {
    "name": "Minta",
    "specialty": "GP",
    "language": "Japanese",
    "postcode": 1936
  },
  {
    "name": "Constance",
    "specialty": "Optometrist",
    "language": "Cantonese",
    "postcode": 2974
  },
  {
    "name": "Shalne",
    "specialty": "Optometrist",
    "language": "Cantonese",
    "postcode": 2501
  },
  {
    "name": "Florette",
    "specialty": "Optometrist",
    "language": "English",
    "postcode": 2283
  },
  {
    "name": "Denni",
    "specialty": "GP",
    "language": "Chinese",
    "postcode": 2731
  },
  {
    "name": "Tiena",
    "specialty": "Optometrist",
    "language": "Italian",
    "postcode": 2096
  },
  {
    "name": "Fenelia",
    "specialty": "Dentist",
    "language": "Chinese",
    "postcode": 2176
  },
  {
    "name": "Eula",
    "specialty": "GP",
    "language": "Chinese",
    "postcode": 2036
  },
  {
    "name": "Selia",
    "specialty": "Optometrist",
    "language": "Cantonese",
    "postcode": 2149
  },
  {
    "name": "Dolli",
    "specialty": "Optometrist",
    "language": "Japanese",
    "postcode": 2432
  },
  {
    "name": "Charyl",
    "specialty": "Optometrist",
    "language": "Spanish",
    "postcode": 1909
  },
  {
    "name": "Lotti",
    "specialty": "GP",
    "language": "English",
    "postcode": 2093
  },
  {
    "name": "Tootsie",
    "specialty": "Optometrist",
    "language": "Chinese",
    "postcode": 2391
  },
  {
    "name": "Karolina",
    "specialty": "Dentist",
    "language": "Japanese",
    "postcode": 2619
  },
  {
    "name": "Selle",
    "specialty": "Optometrist",
    "language": "Cantonese",
    "postcode": 1915
  },
  {
    "name": "Aleen",
    "specialty": "GP",
    "language": "Chinese",
    "postcode": 2999
  },
  {
    "name": "Brandy",
    "specialty": "Optometrist",
    "language": "Chinese",
    "postcode": 2561
  },
  {
    "name": "Editha",
    "specialty": "Optometrist",
    "language": "Cantonese",
    "postcode": 2268
  },
  {
    "name": "Lorraine",
    "specialty": "Optometrist",
    "language": "Japanese",
    "postcode": 2217
  },
  {
    "name": "Benedicta",
    "specialty": "GP",
    "language": "Italian",
    "postcode": 2234
  },
  {
    "name": "Donetta",
    "specialty": "Optometrist",
    "language": "Chinese",
    "postcode": 2726
  },
  {
    "name": "Liane",
    "specialty": "Dentist",
    "language": "Cantonese",
    "postcode": 2878
  },
  {
    "name": "Marisa",
    "specialty": "Dentist",
    "language": "Chinese",
    "postcode": 1914
  },
  {
    "name": "Lian",
    "specialty": "GP",
    "language": "Spanish",
    "postcode": 2108
  },
  {
    "name": "Celine",
    "specialty": "Dentist",
    "language": "Cantonese",
    "postcode": 1902
  },
  {
    "name": "Arielle",
    "specialty": "Optometrist",
    "language": "Japanese",
    "postcode": 2334
  },
  {
    "name": "Florida",
    "specialty": "GP",
    "language": "Italian",
    "postcode": 1937
  },
  {
    "name": "Marianne",
    "specialty": "Dentist",
    "language": "English",
    "postcode": 1806
  },
  {
    "name": "Caye",
    "specialty": "GP",
    "language": "Italian",
    "postcode": 2560
  },
  {
    "name": "Nolie",
    "specialty": "GP",
    "language": "Chinese",
    "postcode": 2562
  },
  {
    "name": "Lonnie",
    "specialty": "GP",
    "language": "Cantonese",
    "postcode": 2212
  },
  {
    "name": "Cassandry",
    "specialty": "Dentist",
    "language": "Cantonese",
    "postcode": 1879
  },
  {
    "name": "Lucille",
    "specialty": "Dentist",
    "language": "Chinese",
    "postcode": 2773
  },
  {
    "name": "Phelia",
    "specialty": "Optometrist",
    "language": "Chinese",
    "postcode": 2642
  },
  {
    "name": "Lorrin",
    "specialty": "Dentist",
    "language": "Spanish",
    "postcode": 2764
  },
  {
    "name": "Belle",
    "specialty": "Dentist",
    "language": "Chinese",
    "postcode": 2463
  },
  {
    "name": "Renata",
    "specialty": "Optometrist",
    "language": "Japanese",
    "postcode": 2710
  },
  {
    "name": "Tersina",
    "specialty": "Dentist",
    "language": "Cantonese",
    "postcode": 2785
  },
  {
    "name": "Shir",
    "specialty": "Optometrist",
    "language": "English",
    "postcode": 2026
  },
  {
    "name": "Megan",
    "specialty": "Dentist",
    "language": "Japanese",
    "postcode": 2573
  },
  {
    "name": "April",
    "specialty": "Dentist",
    "language": "Cantonese",
    "postcode": 2749
  },
  {
    "name": "Dore",
    "specialty": "Optometrist",
    "language": "Italian",
    "postcode": 1802
  },
  {
    "name": "Florrie",
    "specialty": "GP",
    "language": "Cantonese",
    "postcode": 2736
  },
  {
    "name": "Ashia",
    "specialty": "Dentist",
    "language": "Italian",
    "postcode": 1933
  },
  {
    "name": "Susanne",
    "specialty": "Optometrist",
    "language": "Cantonese",
    "postcode": 2630
  },
  {
    "name": "Marjie",
    "specialty": "Optometrist",
    "language": "Chinese",
    "postcode": 2854
  },
  {
    "name": "Mathilda",
    "specialty": "Dentist",
    "language": "Spanish",
    "postcode": 2664
  },
  {
    "name": "Idaline",
    "specialty": "Optometrist",
    "language": "Cantonese",
    "postcode": 2281
  },
  {
    "name": "Nance",
    "specialty": "Optometrist",
    "language": "Cantonese",
    "postcode": 2676
  },
  {
    "name": "Pam",
    "specialty": "GP",
    "language": "Italian",
    "postcode": 2899
  },
  {
    "name": "Clementia",
    "specialty": "Dentist",
    "language": "Chinese",
    "postcode": 1950
  },
  {
    "name": "Karoly",
    "specialty": "GP",
    "language": "Japanese",
    "postcode": 2776
  },
  {
    "name": "Agneta",
    "specialty": "Dentist",
    "language": "Spanish",
    "postcode": 1896
  },
  {
    "name": "Audre",
    "specialty": "GP",
    "language": "Japanese",
    "postcode": 2227
  },
  {
    "name": "Brooke",
    "specialty": "GP",
    "language": "Chinese",
    "postcode": 1963
  },
  {
    "name": "Faythe",
    "specialty": "GP",
    "language": "Spanish",
    "postcode": 2612
  },
  {
    "name": "Corilla",
    "specialty": "Dentist",
    "language": "English",
    "postcode": 2241
  },
  {
    "name": "Rosemonde",
    "specialty": "Optometrist",
    "language": "English",
    "postcode": 2144
  },
  {
    "name": "Daryn",
    "specialty": "GP",
    "language": "English",
    "postcode": 2661
  },
  {
    "name": "Sherilyn",
    "specialty": "GP",
    "language": "Japanese",
    "postcode": 2244
  },
  {
    "name": "Dorice",
    "specialty": "Optometrist",
    "language": "Japanese",
    "postcode": 2207
  },
  {
    "name": "Elyssa",
    "specialty": "Dentist",
    "language": "Cantonese",
    "postcode": 2294
  },
  {
    "name": "Gusti",
    "specialty": "Dentist",
    "language": "Chinese",
    "postcode": 1968
  },
  {
    "name": "Saree",
    "specialty": "GP",
    "language": "Spanish",
    "postcode": 2201
  },
  {
    "name": "Catherine",
    "specialty": "Dentist",
    "language": "English",
    "postcode": 2489
  },
  {
    "name": "Nichol",
    "specialty": "GP",
    "language": "Italian",
    "postcode": 2655
  },
  {
    "name": "Lacie",
    "specialty": "GP",
    "language": "Japanese",
    "postcode": 2741
  },
  {
    "name": "Eda",
    "specialty": "GP",
    "language": "Chinese",
    "postcode": 2959
  },
  {
    "name": "Kirbee",
    "specialty": "Optometrist",
    "language": "Chinese",
    "postcode": 2337
  },
  {
    "name": "Georgetta",
    "specialty": "Dentist",
    "language": "Japanese",
    "postcode": 1898
  },
  {
    "name": "Sydney",
    "specialty": "GP",
    "language": "Cantonese",
    "postcode": 2096
  },
  {
    "name": "Freddi",
    "specialty": "Dentist",
    "language": "Italian",
    "postcode": 2672
  },
  {
    "name": "Glynnis",
    "specialty": "GP",
    "language": "Chinese",
    "postcode": 1893
  },
  {
    "name": "Gwyn",
    "specialty": "Optometrist",
    "language": "Japanese",
    "postcode": 2938
  },
  {
    "name": "Anne-marie",
    "specialty": "Dentist",
    "language": "Japanese",
    "postcode": 2692
  },
  {
    "name": "Renell",
    "specialty": "Optometrist",
    "language": "Cantonese",
    "postcode": 2885
  },
  {
    "name": "Bobette",
    "specialty": "GP",
    "language": "Spanish",
    "postcode": 2213
  },
  {
    "name": "Grissel",
    "specialty": "GP",
    "language": "Cantonese",
    "postcode": 1837
  },
  {
    "name": "Teena",
    "specialty": "GP",
    "language": "Japanese",
    "postcode": 1914
  },
  {
    "name": "Emmie",
    "specialty": "Optometrist",
    "language": "Cantonese",
    "postcode": 2513
  },
  {
    "name": "Agretha",
    "specialty": "GP",
    "language": "English",
    "postcode": 2830
  },
  {
    "name": "Ray",
    "specialty": "Optometrist",
    "language": "Japanese",
    "postcode": 2337
  },
  {
    "name": "Corly",
    "specialty": "Dentist",
    "language": "Japanese",
    "postcode": 2495
  },
  {
    "name": "Delcina",
    "specialty": "GP",
    "language": "English",
    "postcode": 2842
  },
  {
    "name": "Ivory",
    "specialty": "GP",
    "language": "Chinese",
    "postcode": 2235
  },
  {
    "name": "Abra",
    "specialty": "GP",
    "language": "Italian",
    "postcode": 2203
  },
  {
    "name": "Phylys",
    "specialty": "Dentist",
    "language": "Spanish",
    "postcode": 2484
  },
  {
    "name": "Renata",
    "specialty": "Optometrist",
    "language": "Chinese",
    "postcode": 2494
  },
  {
    "name": "Drucie",
    "specialty": "Dentist",
    "language": "Japanese",
    "postcode": 2584
  },
  {
    "name": "Jacquetta",
    "specialty": "Optometrist",
    "language": "English",
    "postcode": 2343
  },
  {
    "name": "Maurizia",
    "specialty": "Dentist",
    "language": "Japanese",
    "postcode": 2376
  },
  {
    "name": "Colene",
    "specialty": "Optometrist",
    "language": "English",
    "postcode": 2943
  },
  {
    "name": "Hyacinthie",
    "specialty": "GP",
    "language": "Cantonese",
    "postcode": 2338
  }
]